{
  "type": "FeatureCollection",
  "features": [
    {
      "type": "Feature",
      "properties": {
        "id": 8035535,
        "name": "Praça de Serviços da UFMG",
        "amenity": null
      },
      "geometry": {
        "type": "Polygon",
        "coordinates": [
          [
            [-43.9651502, -19.8679574],
            [-43.9651666, -19.8680029],
            [-43.965164, -19.868051],
            [-43.9651428, -19.8680948],
            [-43.965106, -19.8681282],
            [-43.9650586, -19.8681465],
            [-43.9650075, -19.8681471],
            [-43.9649596, -19.86813],
            [-43.9644549, -19.867848],
            [-43.9643099, -19.8680865],
            [-43.9644632, -19.8681795],
            [-43.9647254, -19.8683383],
            [-43.9648435, -19.8683803],
            [-43.964917, -19.8683796],
            [-43.9649494, -19.8683769],
            [-43.9651332, -19.8683614],
            [-43.9651604, -19.8683591],
            [-43.9652111, -19.8683296],
            [-43.9652584, -19.8683021],
            [-43.9653073, -19.8682611],
            [-43.9653286, -19.8682418],
            [-43.9653688, -19.8681745],
            [-43.9653981, -19.8680847],
            [-43.9654045, -19.8679827],
            [-43.965383, -19.8678967],
            [-43.9653721, -19.8678677],
            [-43.9653192, -19.8678194],
            [-43.9653068, -19.8677296],
            [-43.9650182, -19.8673955],
            [-43.9648725, -19.8673624],
            [-43.9648895, -19.8676382],
            [-43.9651502, -19.8679574],
            [-43.9651502, -19.8679574]
          ]
        ]
      }
    },
    {
      "type": "Feature",
      "properties": {
        "id": 8599710,
        "name": "Restaurante Universitário Setorial II",
        "amenity": "restaurant"
      },
      "geometry": {
        "type": "Polygon",
        "coordinates": [
          [
            [-43.967226, -19.8706601],
            [-43.9669998, -19.8704798],
            [-43.9670972, -19.8703669],
            [-43.9669462, -19.8702517],
            [-43.9670579, -19.8701222],
            [-43.9669672, -19.8700529],
            [-43.9667942, -19.8702534],
            [-43.9666605, -19.8701514],
            [-43.9665937, -19.8701004],
            [-43.9664331, -19.8702866],
            [-43.966538, -19.8703667],
            [-43.9664818, -19.8704318],
            [-43.9664411, -19.8704008],
            [-43.9662638, -19.8706063],
            [-43.9664452, -19.8707447],
            [-43.9665484, -19.870625],
            [-43.966646, -19.8706995],
            [-43.9666136, -19.8707371],
            [-43.9668428, -19.870927],
            [-43.9669906, -19.8707436],
            [-43.9670991, -19.8708042],
            [-43.967226, -19.8706601],
            [-43.967226, -19.8706601]
          ]
        ]
      }
    },
    {
      "type": "Feature",
      "properties": {
        "id": 8601184,
        "name": "Hospital Veterinário",
        "amenity": "veterinary"
      },
      "geometry": {
        "type": "Polygon",
        "coordinates": [
          [
            [-43.9722542, -19.8700579],
            [-43.9715322, -19.8709234],
            [-43.972072, -19.8713217],
            [-43.9721955, -19.8711737],
            [-43.971868, -19.870932],
            [-43.9719498, -19.870834],
            [-43.9722591, -19.8710622],
            [-43.9723618, -19.870939],
            [-43.9720189, -19.8706861],
            [-43.9721261, -19.8705576],
            [-43.9724511, -19.8707975],
            [-43.9725559, -19.8706718],
            [-43.9722479, -19.8704445],
            [-43.9723321, -19.8703435],
            [-43.9726455, -19.8705748],
            [-43.9727633, -19.8704335],
            [-43.9722542, -19.8700579],
            [-43.9722542, -19.8700579]
          ]
        ]
      }
    },
    {
      "type": "Feature",
      "properties": {
        "id": 8601186,
        "name": "Unidade Administrativa II",
        "amenity": null
      },
      "geometry": {
        "type": "Polygon",
        "coordinates": [
          [
            [-43.9672855, -19.8633907],
            [-43.9679141, -19.8626651],
            [-43.9677416, -19.8625329],
            [-43.967113, -19.8632585],
            [-43.9672855, -19.8633907],
            [-43.9672855, -19.8633907]
          ]
        ]
      }
    },
    {
      "type": "Feature",
      "properties": {
        "id": 8609220,
        "name": "Centro de Atividades Didáticas 1",
        "amenity": null
      },
      "geometry": {
        "type": "Polygon",
        "coordinates": [
          [
            [-43.9673568, -19.8671083],
            [-43.9675268, -19.866911],
            [-43.9667878, -19.8663581],
            [-43.9664108, -19.866076],
            [-43.9662742, -19.8659738],
            [-43.9662235, -19.8660306],
            [-43.9661062, -19.8661621],
            [-43.9662169, -19.8662363],
            [-43.9664894, -19.8664547],
            [-43.9665389, -19.866407],
            [-43.9671273, -19.8668428],
            [-43.9670731, -19.8669038],
            [-43.9671418, -19.8669533],
            [-43.9673568, -19.8671083],
            [-43.9673568, -19.8671083]
          ]
        ]
      }
    },
    {
      "type": "Feature",
      "properties": {
        "id": 28859474,
        "name": "Laboratório de Extra Alta Tensão",
        "amenity": null
      },
      "geometry": {
        "type": "Polygon",
        "coordinates": [
          [
            [-43.9646136, -19.8722393],
            [-43.9645653, -19.8722897],
            [-43.9644896, -19.8722289],
            [-43.9644151, -19.8723073],
            [-43.9644929, -19.8723704],
            [-43.9643829, -19.8725016],
            [-43.9646056, -19.8726681],
            [-43.9648362, -19.8724057],
            [-43.9646136, -19.8722393],
            [-43.9646136, -19.8722393]
          ]
        ]
      }
    },
    {
      "type": "Feature",
      "properties": {
        "id": 28859483,
        "name": "INOVA",
        "amenity": null
      },
      "geometry": {
        "type": "Polygon",
        "coordinates": [
          [
            [-43.9648577, -19.8724184],
            [-43.9646324, -19.8726706],
            [-43.9647611, -19.8727841],
            [-43.9649918, -19.8725294],
            [-43.9648577, -19.8724184],
            [-43.9648577, -19.8724184]
          ]
        ]
      }
    },
    {
      "type": "Feature",
      "properties": {
        "id": 28859500,
        "name": "CEMIG",
        "amenity": null
      },
      "geometry": {
        "type": "Polygon",
        "coordinates": [
          [
            [-43.9652091, -19.8726756],
            [-43.9649033, -19.8726832],
            [-43.9649006, -19.8728345],
            [-43.9652037, -19.8728295],
            [-43.9652091, -19.8726756],
            [-43.9652091, -19.8726756]
          ]
        ]
      }
    },
    {
      "type": "Feature",
      "properties": {
        "id": 30416738,
        "name": "Colégio Técnico",
        "amenity": "school"
      },
      "geometry": {
        "type": "Polygon",
        "coordinates": [
          [
            [-43.9636345, -19.8720903],
            [-43.9632933, -19.8718306],
            [-43.9629318, -19.8715555],
            [-43.9627923, -19.871722],
            [-43.9628889, -19.8718077],
            [-43.9627601, -19.871949],
            [-43.9623256, -19.8716211],
            [-43.9622237, -19.871732],
            [-43.9629533, -19.872292],
            [-43.9630498, -19.872176],
            [-43.9629479, -19.8720953],
            [-43.9630713, -19.8719541],
            [-43.9634951, -19.8722618],
            [-43.9636345, -19.8720903],
            [-43.9636345, -19.8720903]
          ]
        ]
      }
    },
    {
      "type": "Feature",
      "properties": {
        "id": 36963030,
        "name": "Restaurante Universitário Setorial I",
        "amenity": "restaurant"
      },
      "geometry": {
        "type": "Polygon",
        "coordinates": [
          [
            [-43.9603975, -19.8693471],
            [-43.9599306, -19.868997],
            [-43.9598039, -19.8691465],
            [-43.9599899, -19.869286],
            [-43.9599338, -19.8693521],
            [-43.9598636, -19.8692995],
            [-43.9597291, -19.8694582],
            [-43.9599029, -19.8695885],
            [-43.9599234, -19.8695624],
            [-43.9599629, -19.8695667],
            [-43.9600024, -19.8695539],
            [-43.9600272, -19.8695391],
            [-43.9600464, -19.8695008],
            [-43.9600713, -19.8694892],
            [-43.9600995, -19.8694637],
            [-43.9601074, -19.8694435],
            [-43.9601229, -19.8694231],
            [-43.960148, -19.869435],
            [-43.9601864, -19.8694754],
            [-43.9602248, -19.8694669],
            [-43.9602293, -19.8694966],
            [-43.9602528, -19.8695178],
            [-43.9603975, -19.8693471],
            [-43.9603975, -19.8693471]
          ]
        ]
      }
    },
    {
      "type": "Feature",
      "properties": {
        "id": 160972564,
        "name": "Laboratório de Ensaio de Combustíveis",
        "amenity": null
      },
      "geometry": {
        "type": "Polygon",
        "coordinates": [
          [
            [-43.9656266, -19.8709334],
            [-43.9655622, -19.8708831],
            [-43.9655353, -19.8709123],
            [-43.9654749, -19.8708663],
            [-43.96549, -19.8708518],
            [-43.9654367, -19.870814],
            [-43.9654845, -19.8707603],
            [-43.9654053, -19.8707063],
            [-43.9654037, -19.8705752],
            [-43.9654508, -19.8705723],
            [-43.9655545, -19.870457],
            [-43.9656408, -19.8705207],
            [-43.9656079, -19.8705588],
            [-43.9656608, -19.8705999],
            [-43.9656346, -19.8706282],
            [-43.9656785, -19.870663],
            [-43.9657486, -19.8707102],
            [-43.9656493, -19.8708043],
            [-43.9657063, -19.8708459],
            [-43.9656266, -19.8709334],
            [-43.9656266, -19.8709334]
          ]
        ]
      }
    },
    {
      "type": "Feature",
      "properties": {
        "id": 185369614,
        "name": "Centro de Microscopia",
        "amenity": null
      },
      "geometry": {
        "type": "Polygon",
        "coordinates": [
          [
            [-43.9685294, -19.8751763],
            [-43.9686689, -19.8752243],
            [-43.9686241, -19.8753928],
            [-43.968953, -19.8755013],
            [-43.9688996, -19.875648],
            [-43.9685697, -19.8755446],
            [-43.9685992, -19.8754588],
            [-43.9684463, -19.8754109],
            [-43.9685294, -19.8751763],
            [-43.9685294, -19.8751763]
          ]
        ]
      }
    },
    {
      "type": "Feature",
      "properties": {
        "id": 185369615,
        "name": "Centro de Pesquisas Hidráulicas",
        "amenity": null
      },
      "geometry": {
        "type": "Polygon",
        "coordinates": [
          [
            [-43.9681889, -19.874959],
            [-43.9680173, -19.8748329],
            [-43.9680709, -19.8747724],
            [-43.9678617, -19.8746135],
            [-43.9677463, -19.8747598],
            [-43.9676552, -19.8747043],
            [-43.967462, -19.8749212],
            [-43.9675586, -19.8749994],
            [-43.9674459, -19.8751331],
            [-43.9677365, -19.8753167],
            [-43.9678966, -19.8751255],
            [-43.9679985, -19.8752012],
            [-43.9681889, -19.874959],
            [-43.9681889, -19.874959]
          ]
        ]
      }
    },
    {
      "type": "Feature",
      "properties": {
        "id": 193315101,
        "name": "Auditório Francisco de Assis Magalhães Gomes",
        "amenity": null
      },
      "geometry": {
        "type": "Polygon",
        "coordinates": [
          [
            [-43.9667254, -19.8725289],
            [-43.9667993, -19.8726082],
            [-43.9668542, -19.8726894],
            [-43.9668592, -19.8727024],
            [-43.9668853, -19.8727632],
            [-43.9669067, -19.872849],
            [-43.9669063, -19.8729696],
            [-43.9667086, -19.8729287],
            [-43.9665371, -19.8728973],
            [-43.9664948, -19.8727902],
            [-43.9665648, -19.8727165],
            [-43.9666743, -19.8725942],
            [-43.9667254, -19.8725289],
            [-43.9667254, -19.8725289]
          ]
        ]
      }
    },
    {
      "type": "Feature",
      "properties": {
        "id": 193332119,
        "name": "Centro de Atividades Didáticas 3",
        "amenity": null
      },
      "geometry": {
        "type": "Polygon",
        "coordinates": [
          [
            [-43.9647335, -19.8702953],
            [-43.9641072, -19.870286],
            [-43.9641035, -19.870507],
            [-43.9646118, -19.8705145],
            [-43.9646089, -19.8706843],
            [-43.964246, -19.870679],
            [-43.9642424, -19.8708973],
            [-43.9649256, -19.8709074],
            [-43.9649307, -19.8705999],
            [-43.9647285, -19.8705969],
            [-43.9647335, -19.8702953],
            [-43.9647335, -19.8702953]
          ]
        ]
      }
    },
    {
      "type": "Feature",
      "properties": {
        "id": 217652950,
        "name": "Biotério Central",
        "amenity": null
      },
      "geometry": {
        "type": "Polygon",
        "coordinates": [
          [
            [-43.9677199, -19.8689261],
            [-43.967743, -19.869438],
            [-43.9676453, -19.8694403],
            [-43.9676395, -19.8693365],
            [-43.9673543, -19.8693415],
            [-43.9674463, -19.8693785],
            [-43.9674075, -19.8694859],
            [-43.9670971, -19.8693678],
            [-43.9671494, -19.8692054],
            [-43.967151, -19.8689289],
            [-43.9677199, -19.8689261],
            [-43.9677199, -19.8689261]
          ]
        ]
      }
    },
    {
      "type": "Feature",
      "properties": {
        "id": 419694542,
        "name": "Rosa dos ventos - Instituto de Geo-ciências da UFMG",
        "amenity": null
      },
      "geometry": {
        "type": "Polygon",
        "coordinates": [
          [
            [-43.9622485, -19.8682507],
            [-43.962244, -19.8682859],
            [-43.9622165, -19.8682651],
            [-43.9622383, -19.8682943],
            [-43.962198, -19.8682973],
            [-43.9622373, -19.8683027],
            [-43.9622162, -19.8683268],
            [-43.9622437, -19.8683102],
            [-43.9622492, -19.8683457],
            [-43.9622533, -19.8683099],
            [-43.9622814, -19.8683279],
            [-43.9622587, -19.8683024],
            [-43.9622929, -19.8682982],
            [-43.96226, -19.8682925],
            [-43.9622828, -19.8682665],
            [-43.9622535, -19.8682864],
            [-43.9622485, -19.8682507],
            [-43.9622485, -19.8682507]
          ]
        ]
      }
    },
    {
      "type": "Feature",
      "properties": {
        "id": 469146597,
        "name": "Biotério FaFar",
        "amenity": null
      },
      "geometry": {
        "type": "Polygon",
        "coordinates": [
          [
            [-43.9686979, -19.8693754],
            [-43.9686053, -19.8694847],
            [-43.968412, -19.8692942],
            [-43.9684809, -19.8692128],
            [-43.9686979, -19.8693754],
            [-43.9686979, -19.8693754]
          ]
        ]
      }
    },
    {
      "type": "Feature",
      "properties": {
        "id": 469584823,
        "name": "Restaurante do ICB",
        "amenity": "restaurant"
      },
      "geometry": {
        "type": "Polygon",
        "coordinates": [
          [
            [-43.9662388, -19.8678501],
            [-43.9661632, -19.8679299],
            [-43.9660535, -19.8678515],
            [-43.9660308, -19.8678764],
            [-43.9660026, -19.8678529],
            [-43.9661148, -19.8677196],
            [-43.9661438, -19.8677396],
            [-43.9661237, -19.8677635],
            [-43.9662388, -19.8678501],
            [-43.9662388, -19.8678501]
          ]
        ]
      }
    },
    {
      "type": "Feature",
      "properties": {
        "id": 1391665910,
        "name": "Estação Ecológica da UFMG",
        "amenity": null
      },
      "geometry": {
        "type": "Polygon",
        "coordinates": [
          [
            [-43.9722788, -19.8735667],
            [-43.9721782, -19.8736071],
            [-43.9723069, -19.8738915],
            [-43.9720474, -19.873971],
            [-43.972089, -19.8740769],
            [-43.9724511, -19.8739457],
            [-43.9722788, -19.8735667],
            [-43.9722788, -19.8735667]
          ]
        ]
      }
    },
    {
      "type": "Feature",
      "properties": {
        "id": 3758,
        "name": "Instituto de Ciências Exatas",
        "amenity": null
      },
      "geometry": {
        "type": "MultiPolygon",
        "coordinates": [
          [
            [
              [-43.9648261, -19.8692368],
              [-43.964883, -19.8691768],
              [-43.9649448, -19.8692262],
              [-43.9648261, -19.8692368]
            ]
          ],
          [
            [
              [-43.9641485, -19.8692625],
              [-43.964287, -19.8691036],
              [-43.9643558, -19.8691556],
              [-43.9642913, -19.8692308],
              [-43.9643834, -19.869297],
              [-43.9644577, -19.8693564],
              [-43.9645246, -19.869282],
              [-43.96459, -19.869326],
              [-43.9641485, -19.8692625]
            ]
          ],
          [
            [
              [-43.9638838, -19.8689253],
              [-43.9638806, -19.8690615],
              [-43.9640656, -19.8691986],
              [-43.9641485, -19.8692625],
              [-43.9638838, -19.8689253]
            ]
          ],
          [
            [
              [-43.9645757, -19.8686683],
              [-43.9641412, -19.8683447],
              [-43.9639711, -19.8683798],
              [-43.9637447, -19.8686165],
              [-43.9637768, -19.8687791],
              [-43.9638793, -19.8688566],
              [-43.963885, -19.8688925],
              [-43.9638838, -19.8689253],
              [-43.9645757, -19.8686683]
            ]
          ],
          [
            [
              [-43.9650076, -19.8689989],
              [-43.9647171, -19.868776],
              [-43.9645757, -19.8686683],
              [-43.9650076, -19.8689989]
            ]
          ]
        ]
      }
    },
    {
      "type": "Feature",
      "properties": {
        "id": 2902883,
        "name": "Edifício Professor Yvon Leite de Magalhães Pinto",
        "amenity": null
      },
      "geometry": {
        "type": "MultiPolygon",
        "coordinates": [
          [
            [
              [-43.9634473, -19.8681044],
              [-43.963445, -19.8680692],
              [-43.9631328, -19.8680925],
              [-43.9631159, -19.86794],
              [-43.9634553, -19.8679097],
              [-43.9634701, -19.8680673],
              [-43.9635409, -19.8680972],
              [-43.9634473, -19.8681044]
            ]
          ],
          [
            [
              [-43.9635409, -19.8680972],
              [-43.9637903, -19.8678077],
              [-43.963402, -19.8675123],
              [-43.9630764, -19.8672669],
              [-43.9629883, -19.8673704],
              [-43.9629012, -19.8673077],
              [-43.9628238, -19.8672519],
              [-43.9629233, -19.8671371],
              [-43.9626531, -19.866936],
              [-43.962423, -19.8672053],
              [-43.9626576, -19.8673878],
              [-43.9627039, -19.8673648],
              [-43.9635409, -19.8680972]
            ]
          ],
          [
            [
              [-43.9627039, -19.8673648],
              [-43.9627114, -19.8674178],
              [-43.9626536, -19.8674255],
              [-43.9627462, -19.8682404],
              [-43.9629683, -19.8682258],
              [-43.9627039, -19.8673648]
            ]
          ],
          [
            [
              [-43.9629683, -19.8682258],
              [-43.9628516, -19.8683644],
              [-43.9631442, -19.8685951],
              [-43.9634092, -19.8682822],
              [-43.9632854, -19.8681905],
              [-43.9629683, -19.8682258]
            ]
          ],
          [
            [
              [-43.9632854, -19.8681905],
              [-43.9634542, -19.8681761],
              [-43.9634473, -19.8681044],
              [-43.9632854, -19.8681905]
            ]
          ]
        ]
      }
    },
    {
      "type": "Feature",
      "properties": {
        "id": 2902927,
        "name": "Faculdade de Farmácia",
        "amenity": null
      },
      "geometry": {
        "type": "MultiPolygon",
        "coordinates": [
          [
            [
              [-43.9696232, -19.8702929],
              [-43.9699638, -19.8702904],
              [-43.9699624, -19.8704529],
              [-43.9692494, -19.8704578],
              [-43.9692462, -19.8703355],
              [-43.9692443, -19.870175],
              [-43.9690182, -19.8701728],
              [-43.969016, -19.8700172],
              [-43.9692347, -19.8700192],
              [-43.9692334, -19.8699294],
              [-43.9690133, -19.8699295],
              [-43.969007, -19.869733],
              [-43.969241, -19.869737],
              [-43.9692431, -19.8696267],
              [-43.9690942, -19.8696827],
              [-43.9690226, -19.8695372],
              [-43.969125, -19.8694686],
              [-43.9693246, -19.8694153],
              [-43.9694416, -19.8694019],
              [-43.9697099, -19.8694291],
              [-43.9698715, -19.8695208],
              [-43.9698514, -19.8695919],
              [-43.9696619, -19.8695678],
              [-43.9695327, -19.8695461],
              [-43.9693361, -19.8695675],
              [-43.9693084, -19.8696481],
              [-43.9693096, -19.8697445],
              [-43.9696466, -19.8697409],
              [-43.9698236, -19.8697404],
              [-43.9699798, -19.8697382],
              [-43.9699815, -19.8699305],
              [-43.9696103, -19.8699335],
              [-43.969611, -19.8700088],
              [-43.9699662, -19.870006],
              [-43.9699679, -19.8701887],
              [-43.9696223, -19.8701915],
              [-43.9696232, -19.8702929],
              [-43.9696232, -19.8702929]
            ]
          ]
        ]
      }
    },
    {
      "type": "Feature",
      "properties": {
        "id": 2902933,
        "name": "Escola de Engenharia",
        "amenity": null
      },
      "geometry": {
        "type": "MultiPolygon",
        "coordinates": [
          [
            [
              [-43.9637959, -19.8704052],
              [-43.9632163, -19.8710837],
              [-43.9630205, -19.8709324],
              [-43.9636079, -19.8702715],
              [-43.9636857, -19.8703194],
              [-43.9637366, -19.8702488],
              [-43.9634443, -19.8700066],
              [-43.9633477, -19.8700117],
              [-43.9633423, -19.8701176],
              [-43.963311, -19.8701183],
              [-43.9628971, -19.870158],
              [-43.9628891, -19.8699915],
              [-43.9630393, -19.8699764],
              [-43.9632109, -19.8697645],
              [-43.9630011, -19.8696004],
              [-43.9627335, -19.8693911],
              [-43.9624787, -19.8696686],
              [-43.9623338, -19.8696863],
              [-43.9623526, -19.8699839],
              [-43.9619771, -19.8700218],
              [-43.9619817, -19.8700707],
              [-43.9619825, -19.8701252],
              [-43.962366, -19.8700899],
              [-43.9623687, -19.8701176],
              [-43.9620281, -19.8705313],
              [-43.9615828, -19.8701857],
              [-43.96191, -19.8701504],
              [-43.961902, -19.8700243],
              [-43.9615372, -19.8700621],
              [-43.9615292, -19.8700091],
              [-43.9614407, -19.8700167],
              [-43.9614433, -19.8700672],
              [-43.9611671, -19.8700949],
              [-43.9611698, -19.8701252],
              [-43.96121, -19.8701252],
              [-43.96121, -19.8701605],
              [-43.9611698, -19.8701706],
              [-43.9611778, -19.870216],
              [-43.961438, -19.8701933],
              [-43.9614568, -19.870327],
              [-43.9611912, -19.8703623],
              [-43.9614514, -19.870554],
              [-43.9615238, -19.8704758],
              [-43.9617893, -19.8706776],
              [-43.9615721, -19.8709198],
              [-43.9614755, -19.8708466],
              [-43.9614112, -19.8709223],
              [-43.9616204, -19.8710837],
              [-43.9613387, -19.8714293],
              [-43.9610786, -19.8712376],
              [-43.9612502, -19.8710257],
              [-43.9610169, -19.8708466],
              [-43.9612207, -19.8706045],
              [-43.9613414, -19.8706877],
              [-43.9614138, -19.8705944],
              [-43.9611242, -19.8703749],
              [-43.96099, -19.87039],
              [-43.9609981, -19.8704506],
              [-43.9610383, -19.8704531],
              [-43.9610491, -19.8706045],
              [-43.960754, -19.8706398],
              [-43.9607191, -19.8706852],
              [-43.9608479, -19.8707735],
              [-43.9606629, -19.8709855],
              [-43.9604357, -19.8708261],
              [-43.9605639, -19.8706473],
              [-43.9605126, -19.8706549],
              [-43.9605046, -19.8705742],
              [-43.9604536, -19.8705742],
              [-43.9604482, -19.870496],
              [-43.9604831, -19.8704909],
              [-43.9604643, -19.8702791],
              [-43.9609471, -19.8702286],
              [-43.9609337, -19.8701151],
              [-43.9608533, -19.8701201],
              [-43.9608157, -19.8696863],
              [-43.9609847, -19.8696711],
              [-43.9609878, -19.8697316],
              [-43.9610303, -19.8697241],
              [-43.9610169, -19.8694643],
              [-43.9610652, -19.8694618],
              [-43.9610544, -19.8693911],
              [-43.9611322, -19.8693861],
              [-43.9611429, -19.8694567],
              [-43.9613763, -19.8694315],
              [-43.9613817, -19.8694794],
              [-43.9614788, -19.869474],
              [-43.9614782, -19.8694138],
              [-43.9618949, -19.8693791],
              [-43.9623016, -19.8693432],
              [-43.9623285, -19.8695904],
              [-43.9623875, -19.8695828],
              [-43.9625591, -19.8693962],
              [-43.9623714, -19.8692524],
              [-43.9625565, -19.8690354],
              [-43.9627617, -19.8691994],
              [-43.9628274, -19.8692574],
              [-43.9627952, -19.8692953],
              [-43.9640639, -19.8702387],
              [-43.96397, -19.8703396],
              [-43.9639324, -19.8703068],
              [-43.9639029, -19.8703497],
              [-43.963793, -19.870274],
              [-43.963777, -19.8702937],
              [-43.9637313, -19.8703497],
              [-43.9637959, -19.8704052],
              [-43.9637959, -19.8704052]
            ]
          ]
        ]
      }
    },
    {
      "type": "Feature",
      "properties": {
        "id": 2902960,
        "name": "Departamento de Química",
        "amenity": null
      },
      "geometry": {
        "type": "MultiPolygon",
        "coordinates": [
          [
            [
              [-43.9640224, -19.8717514],
              [-43.9639982, -19.8717803],
              [-43.9639276, -19.8718646],
              [-43.9636391, -19.8716508],
              [-43.9635527, -19.8717539],
              [-43.9641549, -19.8722002],
              [-43.9642406, -19.8720979],
              [-43.9639701, -19.8718974],
              [-43.9640385, -19.8718157],
              [-43.9640656, -19.8717834],
              [-43.9642509, -19.8719295],
              [-43.9643366, -19.8718327],
              [-43.964427, -19.8719034],
              [-43.9647586, -19.8715286],
              [-43.9646676, -19.8714574],
              [-43.9647698, -19.8713419],
              [-43.964742, -19.8713201],
              [-43.9648095, -19.8712437],
              [-43.9648683, -19.871292],
              [-43.9649672, -19.8711812],
              [-43.9647416, -19.8710031],
              [-43.9646428, -19.8711138],
              [-43.9647729, -19.8712165],
              [-43.964712, -19.8712885],
              [-43.9643385, -19.8709995],
              [-43.9642503, -19.8710961],
              [-43.9641652, -19.8710295],
              [-43.9638093, -19.8714317],
              [-43.9639072, -19.8715083],
              [-43.9638276, -19.8715982],
              [-43.9640224, -19.8717514],
              [-43.9640224, -19.8717514]
            ]
          ]
        ]
      }
    },
    {
      "type": "Feature",
      "properties": {
        "id": 5420046,
        "name": "Faculdade de Odontologia",
        "amenity": null
      },
      "geometry": {
        "type": "MultiPolygon",
        "coordinates": [
          [
            [
              [-43.9741182, -19.8726107],
              [-43.974172, -19.8725972],
              [-43.9742196, -19.8725702],
              [-43.9742574, -19.8725318],
              [-43.9742823, -19.872485],
              [-43.9742923, -19.8724335],
              [-43.9742868, -19.8723814],
              [-43.974266, -19.8723329],
              [-43.9742316, -19.8722917],
              [-43.9741865, -19.8722611],
              [-43.9741341, -19.8722435],
              [-43.9740793, -19.8722428],
              [-43.9740763, -19.8722217],
              [-43.9741145, -19.8722228],
              [-43.9741075, -19.8721571],
              [-43.9742481, -19.8721486],
              [-43.974301, -19.8720959],
              [-43.9736752, -19.871626],
              [-43.9732139, -19.8721678],
              [-43.9734596, -19.8723559],
              [-43.9733245, -19.8725065],
              [-43.9736458, -19.8727589],
              [-43.9735954, -19.8728207],
              [-43.9740355, -19.8731613],
              [-43.9741503, -19.8730293],
              [-43.974177, -19.8730634],
              [-43.974155, -19.873173],
              [-43.9742101, -19.8731777],
              [-43.9742649, -19.8731702],
              [-43.9743163, -19.8731511],
              [-43.9743618, -19.8731214],
              [-43.9743987, -19.8730826],
              [-43.9744251, -19.8730369],
              [-43.9744396, -19.8729867],
              [-43.9744414, -19.8729347],
              [-43.9744304, -19.8728837],
              [-43.9744072, -19.8728364],
              [-43.974373, -19.8727954],
              [-43.9741182, -19.8726107],
              [-43.9741182, -19.8726107]
            ]
          ]
        ]
      }
    },
    {
      "type": "Feature",
      "properties": {
        "id": 6646179,
        "name": "Biblioteca Central",
        "amenity": "library"
      },
      "geometry": {
        "type": "MultiPolygon",
        "coordinates": [
          [
            [
              [-43.9652716, -19.8670127],
              [-43.965204, -19.8669629],
              [-43.9651022, -19.8670851],
              [-43.9653644, -19.8672909],
              [-43.9653136, -19.8673511],
              [-43.9652479, -19.8673039],
              [-43.9651348, -19.8674337],
              [-43.9654039, -19.8676332],
              [-43.9657085, -19.8672817],
              [-43.9652716, -19.8670127]
            ]
          ],
          [
            [
              [-43.9653947, -19.8670037],
              [-43.9653432, -19.8670655],
              [-43.9652716, -19.8670127],
              [-43.9653947, -19.8670037]
            ]
          ],
          [
            [
              [-43.9654421, -19.8669468],
              [-43.965422, -19.8669709],
              [-43.9653947, -19.8670037],
              [-43.9654421, -19.8669468]
            ]
          ],
          [
            [
              [-43.9654877, -19.8667459],
              [-43.9654206, -19.8668263],
              [-43.9654961, -19.8668819],
              [-43.9654421, -19.8669468],
              [-43.9654877, -19.8667459]
            ]
          ],
          [
            [
              [-43.965782, -19.8672013],
              [-43.9658288, -19.8671485],
              [-43.9658897, -19.8671948],
              [-43.9659906, -19.8670856],
              [-43.9655093, -19.8667164],
              [-43.9654877, -19.8667459],
              [-43.965782, -19.8672013]
            ]
          ],
          [
            [
              [-43.965782, -19.8672013],
              [-43.9657124, -19.867152],
              [-43.9656361, -19.8672302],
              [-43.9657085, -19.8672817],
              [-43.965782, -19.8672013]
            ]
          ]
        ]
      }
    },
    {
      "type": "Feature",
      "properties": {
        "id": 6646180,
        "name": "Departamento de Ciência da Computação",
        "amenity": null
      },
      "geometry": {
        "type": "MultiPolygon",
        "coordinates": [
          [
            [
              [-43.96459, -19.869326],
              [-43.9644914, -19.8694385],
              [-43.9644743, -19.869458],
              [-43.9644126, -19.8695285],
              [-43.9644424, -19.8695516],
              [-43.9648762, -19.8698866],
              [-43.9650786, -19.8696421],
              [-43.96459, -19.869326]
            ]
          ],
          [
            [
              [-43.9649787, -19.8695689],
              [-43.9648742, -19.8696968],
              [-43.9646019, -19.869499],
              [-43.9646857, -19.869397],
              [-43.9649787, -19.8695689]
            ]
          ]
        ]
      }
    },
    {
      "type": "Feature",
      "properties": {
        "id": 6646181,
        "name": "Departamento de Física",
        "amenity": null
      },
      "geometry": {
        "type": "MultiPolygon",
        "coordinates": [
          [
            [
              [-43.9650786, -19.8696421],
              [-43.9653523, -19.8698629],
              [-43.9654564, -19.8697499],
              [-43.9655405, -19.8698146],
              [-43.9650786, -19.8696421]
            ]
          ],
          [
            [
              [-43.9647352, -19.8693296],
              [-43.9650074, -19.8695353],
              [-43.9649787, -19.8695689],
              [-43.9647352, -19.8693296]
            ]
          ],
          [
            [
              [-43.9649448, -19.8692262],
              [-43.9650441, -19.8693004],
              [-43.9650685, -19.8692716],
              [-43.9651324, -19.8693194],
              [-43.9650566, -19.8694091],
              [-43.9648261, -19.8692368],
              [-43.9649448, -19.8692262]
            ]
          ],
          [
            [
              [-43.9658324, -19.8693942],
              [-43.9660198, -19.8691681],
              [-43.9654347, -19.8687078],
              [-43.9653022, -19.8686035],
              [-43.9651735, -19.8687523],
              [-43.9652019, -19.8687743],
              [-43.9650076, -19.8689989],
              [-43.9658324, -19.8693942]
            ]
          ],
          [
            [
              [-43.9657696, -19.8694663],
              [-43.9657289, -19.8694297],
              [-43.9657847, -19.8693636],
              [-43.9658324, -19.8693942],
              [-43.9657696, -19.8694663]
            ]
          ],
          [
            [
              [-43.9659653, -19.8696173],
              [-43.9659454, -19.8696009],
              [-43.9658091, -19.8694965],
              [-43.9657696, -19.8694663],
              [-43.9659653, -19.8696173]
            ]
          ],
          [
            [
              [-43.9655405, -19.8698146],
              [-43.9656165, -19.8698786],
              [-43.9656898, -19.8697923],
              [-43.9657673, -19.869856],
              [-43.9655405, -19.8698146]
            ]
          ]
        ]
      }
    },
    {
      "type": "Feature",
      "properties": {
        "id": 6646188,
        "name": "Reitoria",
        "amenity": null
      },
      "geometry": {
        "type": "MultiPolygon",
        "coordinates": [
          [
            [
              [-43.9651527, -19.8661241],
              [-43.9649001, -19.8659421],
              [-43.9648884, -19.865934],
              [-43.9646684, -19.8657747],
              [-43.9646669, -19.8657737],
              [-43.9644732, -19.8659851],
              [-43.9642331, -19.8657992],
              [-43.9641471, -19.8657383],
              [-43.9640281, -19.8658696],
              [-43.9642417, -19.8660107],
              [-43.9641752, -19.8660943],
              [-43.9642872, -19.8661752],
              [-43.9643829, -19.8662404],
              [-43.9644529, -19.8662886],
              [-43.9645317, -19.8663417],
              [-43.9647997, -19.8665254],
              [-43.9651527, -19.8661241],
              [-43.9651527, -19.8661241]
            ]
          ]
        ]
      }
    },
    {
      "type": "Feature",
      "properties": {
        "id": 9900001,
        "name": "BH-TEC - Parque Tecnologico de Belo Horizonte",
        "amenity": null
      },
      "geometry": {
        "type": "Polygon",
        "coordinates": [
          [
            [-43.9756, -19.8848],
            [-43.9742, -19.8848],
            [-43.9742, -19.8858],
            [-43.9756, -19.8858],
            [-43.9756, -19.8848]
          ]
        ]
      }
    }
  ]
}
